[{"OBJECT_NAME":"STARLINK-3817","OBJECT_ID":"2022-045AN","EPOCH":"2026-03-09T15:35:05.390880","MEAN_MOTION":15.08831384,"ECCENTRICITY":9.695e-5,"INCLINATION":53.2189,"RA_OF_ASC_NODE":189.3052,"ARG_OF_PERICENTER":76.7638,"MEAN_ANOMALY":283.3462,"EPHEMERIS_TYPE":0,"CLASSIFICATION_TYPE":"U","NORAD_CAT_ID":52367,"ELEMENT_SET_NO":999,"REV_AT_EPOCH":21591,"BSTAR":1.6355217e-5,"MEAN_MOTION_DOT":-2.7e-7,"MEAN_MOTION_DDOT":0},{"OBJECT_NAME":"AVUM R\/B","OBJECT_ID":"2015-028B","EPOCH":"2026-03-09T15:47:10.915008","MEAN_MOTION":15.38120394,"ECCENTRICITY":0.01316946,"INCLINATION":98.6577,"RA_OF_ASC_NODE":312.3046,"ARG_OF_PERICENTER":250.9525,"MEAN_ANOMALY":107.7413,"EPHEMERIS_TYPE":0,"CLASSIFICATION_TYPE":"U","NORAD_CAT_ID":40698,"ELEMENT_SET_NO":999,"REV_AT_EPOCH":58785,"BSTAR":0.00031736457,"MEAN_MOTION_DOT":0.00015963,"MEAN_MOTION_DDOT":0}]
